[{"OBJECT_NAME":"JY1SAT (JO-97)","OBJECT_ID":"2018-099AX","EPOCH":"2026-03-09T16:28:19.890048","MEAN_MOTION":15.30302629,"ECCENTRICITY":0.00047232,"INCLINATION":97.4249,"RA_OF_ASC_NODE":131.3625,"ARG_OF_PERICENTER":256.6795,"MEAN_ANOMALY":103.3919,"EPHEMERIS_TYPE":0,"CLASSIFICATION_TYPE":"U","NORAD_CAT_ID":43803,"ELEMENT_SET_NO":999,"REV_AT_EPOCH":39839,"BSTAR":0.00060804308,"MEAN_MOTION_DOT":0.00017774,"MEAN_MOTION_DDOT":0},{"OBJECT_NAME":"STARLINK-32238","OBJECT_ID":"2024-193A","EPOCH":"2026-03-09T11:48:06.637536","MEAN_MOTION":15.30192435,"ECCENTRICITY":0.00010347,"INCLINATION":53.1598,"RA_OF_ASC_NODE":92.1191,"ARG_OF_PERICENTER":83.4153,"MEAN_ANOMALY":276.6966,"EPHEMERIS_TYPE":0,"CLASSIFICATION_TYPE":"U","NORAD_CAT_ID":61661,"ELEMENT_SET_NO":999,"REV_AT_EPOCH":7649,"BSTAR":2.3049768e-5,"MEAN_MOTION_DOT":3.24e-6,"MEAN_MOTION_DDOT":0}]
